[{"OBJECT_NAME":"STARLINK-35139","OBJECT_ID":"2025-257A","EPOCH":"2026-03-09T16:19:16.027968","MEAN_MOTION":15.30203031,"ECCENTRICITY":0.00010818,"INCLINATION":53.1592,"RA_OF_ASC_NODE":216.9569,"ARG_OF_PERICENTER":70.9762,"MEAN_ANOMALY":289.1356,"EPHEMERIS_TYPE":0,"CLASSIFICATION_TYPE":"U","NORAD_CAT_ID":66380,"ELEMENT_SET_NO":999,"REV_AT_EPOCH":1967,"BSTAR":0.00089027174,"MEAN_MOTION_DOT":0.00026103,"MEAN_MOTION_DDOT":0},{"OBJECT_NAME":"COSMOS 2251 DEB","OBJECT_ID":"1993-036DE","EPOCH":"2026-03-09T20:53:28.838688","MEAN_MOTION":15.29467846,"ECCENTRICITY":0.00306247,"INCLINATION":73.7716,"RA_OF_ASC_NODE":223.0836,"ARG_OF_PERICENTER":342.1726,"MEAN_ANOMALY":17.8397,"EPHEMERIS_TYPE":0,"CLASSIFICATION_TYPE":"U","NORAD_CAT_ID":33901,"ELEMENT_SET_NO":999,"REV_AT_EPOCH":90839,"BSTAR":0.0037194515,"MEAN_MOTION_DOT":0.00109321,"MEAN_MOTION_DDOT":0}]
